OBJECT_NAME,OBJECT_ID,EPOCH,MEAN_MOTION,ECCENTRICITY,INCLINATION,RA_OF_ASC_NODE,ARG_OF_PERICENTER,MEAN_ANOMALY,EPHEMERIS_TYPE,CLASSIFICATION_TYPE,NORAD_CAT_ID,ELEMENT_SET_NO,REV_AT_EPOCH,BSTAR,MEAN_MOTION_DOT,MEAN_MOTION_DDOT
STARLINK-31230,2024-020Q,2024-02-07T14:00:01.000224,15.78743004,6.89e-05,53.1627,259.9099,90.8174,195.1257,0,U,58890,999,258,-0.0071605,-0.0114551,0
STARLINK-31245,2024-020R,2024-02-07T14:00:01.000224,15.87450515,1.77e-05,53.1623,259.7832,130.9929,216.5858,0,U,58891,999,269,-0.00045022,-0.00120754,0
STARLINK-31254,2024-020S,2024-02-07T14:00:01.000224,15.78648854,6.99e-05,53.1625,259.9036,92.6644,196.259,0,U,58892,999,269,-0.0073695,-0.011708,0
STARLINK-31255,2024-020T,2024-02-07T14:00:01.000224,15.78599142,7.43e-05,53.1625,259.9005,99.5325,190.8837,0,U,58893,999,269,-0.0074798,-0.01184013,0
STARLINK-31243,2024-020U,2024-02-07T14:00:01.000224,15.78546162,6.6e-05,53.1628,259.8976,98.3674,193.5492,0,U,58894,999,241,-0.0075855,-0.01196261,0
STARLINK-31218,2024-020V,2024-02-07T14:00:01.000224,15.78487444,6.46e-05,53.1627,259.8943,103.3814,190.0767,0,U,58895,999,256,-0.0077043,-0.01209987,0
STARLINK-31221,2024-020W,2024-02-07T14:00:01.000224,15.78457741,6.65e-05,53.1626,259.8918,98.0197,196.6777,0,U,58896,999,256,-0.0077869,-0.01220018,0
STARLINK-31190,2024-020X,2024-02-07T14:00:01.000224,15.78398462,6.75e-05,53.1629,259.8888,95.3342,200.8786,0,U,58897,999,241,-0.0079122,-0.01234421,0
CYGNUS NG-20,2024-021A,2024-02-07T12:45:43.093728,15.49608523,0.0002246,51.6371,242.83,217.2628,142.8205,0,U,58898,999,43828,0.00033756,0.00018592,0
2024-022A,2024-022A,2024-02-07T12:25:43.703616,15.11777696,0.0014852,97.4891,241.3328,267.7277,92.2253,0,U,58899,999,109,0.00076207,0.00012986,0
2024-022B,2024-022B,2024-02-07T12:24:38.824128,15.11907866,0.001532,97.4891,241.3333,264.3389,95.6095,0,U,58900,999,109,0.00052164,8.898e-05,0
2024-022C,2024-022C,2024-02-07T12:23:29.225472,15.12099519,0.0014228,97.49,241.3339,261.0243,98.9377,0,U,58901,999,110,0.00072843,0.00012518,0
2024-022D,2024-022D,2024-02-07T12:22:00.744960,15.12292427,0.0012185,97.4883,241.3348,250.0482,109.9437,0,U,58902,999,109,0.00051959,8.949e-05,0
2024-022E,2024-022E,2024-02-07T12:20:45.492288,15.1247808,0.0012748,97.4885,241.3361,247.5625,112.4256,0,U,58903,999,109,0.00054082,9.368e-05,0
ELECTRON R/B,2024-022F,2024-02-07T13:09:39.637152,16.13955961,0.0112973,97.4726,242.2322,193.8242,165.9945,0,U,58904,999,115,0.0014781,0.05653058,2.1198e-06
2024-023A,2024-023A,2024-02-07T10:58:04.911456,14.89174436,0.0007792,49.996,56.1629,283.081,76.9261,0,U,58905,999,66,0.00062414,5.731e-05,0
2024-023B,2024-023B,2024-02-07T07:44:46.254912,14.89183875,0.0009672,49.9996,56.791,282.36,77.6258,0,U,58906,999,64,0.00063815,5.868e-05,0
2024-023C,2024-023C,2024-02-07T10:57:18.907776,14.8934657,0.000774,50.0007,56.1609,288.881,71.1291,0,U,58907,999,66,0.00045981,4.176e-05,0
2024-023D,2024-023D,2024-02-07T09:20:28.860288,14.893955,0.0008265,49.9923,56.4713,289.5689,70.4359,0,U,58908,999,65,0.00045312,4.118e-05,0
2024-023E,2024-023E,2024-02-06T17:14:11.979744,14.89432982,0.0008168,50.0078,59.6071,286.42,73.5905,0,U,58909,999,55,0.00049904,4.564e-05,0
2024-023F,2024-023F,2024-02-07T09:19:53.298912,14.89542703,0.0009172,49.9893,56.468,292.3549,67.6419,0,U,58910,999,65,0.00068804,6.404e-05,0
2024-023G,2024-023G,2024-02-07T10:55:28.951680,14.89777326,0.0009094,50.0067,56.1546,300.0967,59.9072,0,U,58911,999,66,0.00063327,5.909e-05,0
2024-023H,2024-023H,2024-02-07T07:41:49.160832,14.8989201,0.0010159,49.9907,56.776,300.3426,59.651,0,U,58912,999,64,0.00070616,6.639e-05,0
2024-023J,2024-023J,2024-02-06T10:46:02.803584,14.89952698,0.0010188,50.0066,60.8547,297.7246,62.4214,0,U,58913,999,51,0.00056096,5.231e-05,0
2024-023K,2024-023K,2024-02-07T10:54:23.920128,14.90027124,0.0010813,49.9956,56.1469,303.1188,56.8715,0,U,58914,999,66,0.00064774,6.09e-05,0
2024-023L,2024-023L,2024-02-07T10:53:47.503392,14.90171054,0.0010939,50.0007,56.1457,306.5541,53.4393,0,U,58915,999,66,0.00072965,6.918e-05,0
2024-023M,2024-023M,2024-02-07T07:32:34.851264,14.68853416,0.0099424,49.8985,57.2423,247.5837,111.4538,0,U,58916,999,63,0.00021582,1.15e-05,0
2024-024A,2024-024A,2024-02-07T12:31:45.688512,15.17204133,0.0008363,97.4057,115.9234,263.1668,96.8614,0,U,58917,999,67,0.00091545,0.00018174,0
2024-024B,2024-024B,2024-02-07T06:11:55.874976,15.1714989,0.0009926,97.4065,115.6659,267.6137,92.396,0,U,58918,999,62,0.00060488,0.00011962,0
2024-024C,2024-024C,2024-02-07T12:30:36.158976,15.17469612,0.000917,97.406,115.9245,274.7525,85.2661,0,U,58919,999,66,0.00083457,0.00016689,0
2024-024D,2024-024D,2024-02-07T08:02:37.219200,15.17675121,0.0010148,97.4081,115.7455,283.1383,143.9543,0,U,58920,999,63,0.00089738,0.00018063,0
2024-024E,2024-024E,2024-02-07T07:57:07.502976,15.17487465,0.0009076,97.4071,115.7392,278.2018,125.7512,0,U,58921,999,63,-0.0039993,-0.00079361,0
2024-024F,2024-024F,2024-02-07T06:29:34.406304,15.17460521,0.0009502,97.4009,115.6766,276.8348,155.0058,0,U,58922,999,62,0.00033952,6.74e-05,0
2024-024G,2024-024G,2024-02-07T08:02:13.970688,15.17598739,0.0009931,97.4007,115.7401,279.0606,145.6849,0,U,58923,999,63,0.00070359,0.00014109,0
2024-024H,2024-024H,2024-02-07T06:32:39.751584,15.17653201,0.0010215,97.4061,115.6827,279.7635,166.049,0,U,58924,999,3734,0.00082329,0.00016553,0
2024-024J,2024-024J,2024-02-07T12:29:40.265952,15.17674346,0.0010682,97.406,115.9254,277.4798,82.5222,0,U,58925,999,3737,0.00063243,0.00012703,0
2024-024K,2024-024K,2024-02-07T14:24:46.568736,15.59436006,0.0263374,97.4202,116.3038,322.0814,36.2145,0,U,58926,999,3740,0.00087418,0.0042058,2.2513e-06
2024-024L,2024-024L,2024-02-07T07:44:49.862112,15.17748548,0.000993,97.4094,115.7341,279.0338,80.9772,0,U,58927,999,22,0.0014677,0.00029693,0
EINSTEIN PROBE,2024-007A,2024-02-07T08:28:57.607392,14.93308147,0.0011213,28.9997,19.6253,228.3993,131.5642,0,U,58753,999,435,0.00045826,5.056e-05,0
CZ-2C R/B,2024-007B,2024-02-07T14:32:25.765728,15.14632494,0.0112628,29.0192,11.7317,296.2656,62.6411,0,U,58754,999,440,0.00059683,0.00013534,0
NANOFF B,2023-185S,2024-02-07T10:25:14.447136,15.02028067,0.0015802,97.6385,107.2135,18.2367,341.9421,0,U,58755,999,419,0.00032354,4.194e-05,0
TIANXING-1 02,2024-008A,2024-02-07T13:07:57.933984,15.80635682,0.0004363,95.1277,105.6057,88.9713,271.206,0,U,58756,999,432,0.00065395,0.00125916,0
YUNYAO-1 18,2024-009A,2024-02-07T12:06:15.787296,15.27332239,0.0014364,49.9931,36.842,42.0816,318.1241,0,U,58758,999,416,0.0011166,0.00030213,0
YUNYAO-1 19,2024-009B,2024-02-07T12:07:01.905888,15.27293083,0.0014005,49.9869,36.8313,42.6749,317.5293,0,U,58759,999,417,0.001066,0.00028784,0
YUNYAO-1 20,2024-009C,2024-02-07T12:04:42.369888,15.27386256,0.0014099,49.9931,36.835,44.6661,315.5428,0,U,58760,999,417,0.0010674,0.00028906,0
GRAVITY-1 R/B,2024-009D,2024-02-07T10:55:30.013536,15.64184707,0.0153993,49.8519,29.1251,100.0987,261.7395,0,U,58761,999,426,0.00039608,0.00069978,1.1858e-05
STARLINK-31127,2024-011A,2024-02-07T14:00:01.000224,15.32893361,0.0001051,53.1602,218.3763,93.3007,359.6666,0,U,58765,999,497,-0.076903,-0.0221751,0
STARLINK-31114,2024-011B,2024-02-07T14:00:01.000224,15.32957498,0.0001147,53.16,218.3725,96.219,358.3759,0,U,58766,999,497,-0.076777,-0.02218349,0
STARLINK-31140,2024-011C,2024-02-07T14:00:01.000224,15.34395699,0.0001126,53.1601,218.3375,101.5133,10.7869,0,U,58767,999,508,-0.073309,-0.022177,0
STARLINK-31145,2024-011D,2024-02-07T14:00:01.000224,15.34459436,0.0001092,53.1602,218.3342,90.5557,23.2998,0,U,58768,999,497,-0.073172,-0.02218027,0
STARLINK-31146,2024-011E,2024-02-07T14:00:01.000224,15.35897361,0.0001027,53.1601,218.3023,92.3655,37.5425,0,U,58769,999,508,-0.06981,-0.02216604,0
STARLINK-31143,2024-011F,2024-02-07T14:00:01.000224,15.3596172,0.0001156,53.1603,218.2992,93.7192,37.671,0,U,58770,999,497,-0.069713,-0.0221805,0
STARLINK-31135,2024-011G,2024-02-07T14:00:01.000224,15.37400737,0.0001203,53.1604,218.2706,95.7238,50.0656,0,U,58771,999,497,-0.066525,-0.02218112,0
STARLINK-31136,2024-011H,2024-02-07T14:00:01.000224,15.3746361,0.0001068,53.1602,218.2676,94.9477,52.2518,0,U,58772,999,508,-0.066383,-0.0221788,0
STARLINK-31073,2024-011J,2024-02-07T14:00:01.000224,15.38902805,0.0001139,53.16,218.2423,90.767,69.1786,0,U,58773,999,497,-0.063316,-0.02217909,0
STARLINK-31122,2024-011K,2024-02-07T14:00:01.000224,15.38964971,8.89e-05,53.1601,218.2395,99.2735,62.0108,0,U,58774,999,508,-0.063156,-0.02216828,0
STARLINK-31123,2024-011L,2024-02-07T14:00:01.000224,15.40404345,9.76e-05,53.1602,218.2176,98.5502,73.8276,0,U,58775,999,497,-0.060231,-0.02217589,0
STARLINK-31117,2024-011M,2024-02-07T14:00:01.000224,15.40468489,0.0001057,53.16,218.2149,96.7164,76.924,0,U,58776,999,497,-0.060115,-0.02218055,0
STARLINK-31132,2024-011N,2024-02-07T14:00:01.000224,15.41908265,0.0001,53.16,218.1964,92.9806,90.0998,0,U,58777,999,508,-0.057305,-0.02218842,0
STARLINK-31120,2024-011P,2024-02-07T14:00:01.000224,15.43410184,9.98e-05,53.1595,218.1781,93.2136,98.8477,0,U,58778,999,497,-0.054455,-0.02179218,0
STARLINK-31142,2024-011Q,2024-02-07T14:00:01.000224,15.41970218,0.0001008,53.1598,218.1933,102.2187,82.0546,0,U,58779,999,508,-0.057155,-0.02217785,0
STARLINK-31103,2024-011R,2024-02-07T14:00:01.000224,15.43472361,0.0001213,53.1597,218.1759,51.812,141.3672,0,U,58780,999,497,-0.054315,-0.02178483,0
STARLINK-31099,2024-011S,2024-02-07T14:00:01.000224,15.44976497,0.0001012,53.1596,218.1618,92.8683,107.4912,0,U,58781,999,497,-0.051637,-0.02180335,0
STARLINK-31060,2024-011T,2024-02-07T14:00:01.000224,15.47197301,0.0001332,53.1602,217.6172,94.465,17.613,0,U,58782,999,497,-0.037987,-0.01746193,0
STARLINK-31047,2024-011U,2024-02-07T14:00:01.000224,15.38172098,0.0001042,53.1594,217.9186,120.6436,199.6771,0,U,58783,999,497,-0.064825,-0.02216829,0
STARLINK-31039,2024-011V,2024-02-07T11:33:50.245056,15.48073534,0.0004843,53.16,218.6336,157.2034,202.919,0,U,58784,999,502,-0.0068885,-0.00351539,0
